{
  "type": "FeatureCollection",
  "features": [
    {
      "type": "Feature",
      "properties": {
        "norad_id": 57400,
        "name": "TIANMU-1 08",
        "group": "weather",
        "lat": 0.6591921603871819,
        "lon": 28.63939476320036,
        "alt_km": 486.46035721665794,
        "timestamp": "2025-12-04T21:36:15.516904+00:00",
        "meta_object_name": "TIANMU-1 08",
        "meta_object_id": "2023-101B",
        "meta_epoch": "2025-12-04T15:18:50.895648",
        "meta_mean_motion": 15.27876556,
        "meta_eccentricity": 0.00074601,
        "meta_inclination": 97.2879,
        "meta_ra_of_asc_node": 28.4675,
        "meta_arg_of_pericenter": 106.5409,
        "meta_mean_anomaly": 253.6651,
        "meta_ephemeris_type": 0,
        "meta_classification_type": "U",
        "meta_norad_cat_id": 57400,
        "meta_element_set_no": 999,
        "meta_rev_at_epoch": 13191,
        "meta_bstar": 0.00059192403,
        "meta_mean_motion_dot": 0.00016066,
        "meta_mean_motion_ddot": 0,
        "tle_line1": "1 57400U 23101B   25338.63808907  .00016066  00000+0  59192-3 0  9992",
        "tle_line2": "2 57400  97.2879  28.4675 0007460 106.5409 253.6651 15.27876556131919"
      },
      "geometry": {
        "type": "Point",
        "coordinates": [
          28.63939476320036,
          0.6591921603871819
        ]
      }
    },
    {
      "type": "Feature",
      "properties": {
        "norad_id": 57401,
        "name": "TIANMU-1 09",
        "group": "weather",
        "lat": 71.26058351647616,
        "lon": 6.092366468388697,
        "alt_km": 471.2824649102322,
        "timestamp": "2025-12-04T21:36:15.516913+00:00",
        "meta_object_name": "TIANMU-1 09",
        "meta_object_id": "2023-101C",
        "meta_epoch": "2025-12-04T15:00:01.115424",
        "meta_mean_motion": 15.27899159,
        "meta_eccentricity": 0.00067659,
        "meta_inclination": 97.2836,
        "meta_ra_of_asc_node": 27.9724,
        "meta_arg_of_pericenter": 105.8673,
        "meta_mean_anomaly": 254.3313,
        "meta_ephemeris_type": 0,
        "meta_classification_type": "U",
        "meta_norad_cat_id": 57401,
        "meta_element_set_no": 999,
        "meta_rev_at_epoch": 13191,
        "meta_bstar": 0.0005960204,
        "meta_mean_motion_dot": 0.00016187,
        "meta_mean_motion_ddot": 0,
        "tle_line1": "1 57401U 23101C   25338.62501291  .00016187  00000+0  59602-3 0  9998",
        "tle_line2": "2 57401  97.2836  27.9724 0006765 105.8673 254.3313 15.27899159131911"
      },
      "geometry": {
        "type": "Point",
        "coordinates": [
          6.092366468388697,
          71.26058351647616
        ]
      }
    },
    {
      "type": "Feature",
      "properties": {
        "norad_id": 57402,
        "name": "TIANMU-1 10",
        "group": "weather",
        "lat": -64.08900557083552,
        "lon": -166.1990675652139,
        "alt_km": 493.76751168398823,
        "timestamp": "2025-12-04T21:36:15.516930+00:00",
        "meta_object_name": "TIANMU-1 10",
        "meta_object_id": "2023-101D",
        "meta_epoch": "2025-12-04T15:49:13.374912",
        "meta_mean_motion": 15.27891204,
        "meta_eccentricity": 0.00085396,
        "meta_inclination": 97.2916,
        "meta_ra_of_asc_node": 28.847,
        "meta_arg_of_pericenter": 106.7219,
        "meta_mean_anomaly": 253.4958,
        "meta_ephemeris_type": 0,
        "meta_classification_type": "U",
        "meta_norad_cat_id": 57402,
        "meta_element_set_no": 999,
        "meta_rev_at_epoch": 13191,
        "meta_bstar": 0.0005776642,
        "meta_mean_motion_dot": 0.00015687,
        "meta_mean_motion_ddot": 0,
        "tle_line1": "1 57402U 23101D   25338.65918258  .00015687  00000+0  57766-3 0  9990",
        "tle_line2": "2 57402  97.2916  28.8470 0008539 106.7219 253.4958 15.27891204131914"
      },
      "geometry": {
        "type": "Point",
        "coordinates": [
          -166.1990675652139,
          -64.08900557083552
        ]
      }
    },
    {
      "type": "Feature",
      "properties": {
        "norad_id": 57490,
        "name": "FENGYUN 3F",
        "group": "weather",
        "lat": -49.24225172234551,
        "lon": 57.56430254518855,
        "alt_km": 832.9216646999739,
        "timestamp": "2025-12-04T21:36:15.516950+00:00",
        "meta_object_name": "FENGYUN 3F",
        "meta_object_id": "2023-111A",
        "meta_epoch": "2025-12-04T15:04:28.578720",
        "meta_mean_motion": 14.19890337,
        "meta_eccentricity": 6.844e-05,
        "meta_inclination": 98.7094,
        "meta_ra_of_asc_node": 47.0521,
        "meta_arg_of_pericenter": 88.8318,
        "meta_mean_anomaly": 271.2937,
        "meta_ephemeris_type": 0,
        "meta_classification_type": "U",
        "meta_norad_cat_id": 57490,
        "meta_element_set_no": 999,
        "meta_rev_at_epoch": 12125,
        "meta_bstar": 0.00011543667,
        "meta_mean_motion_dot": 2.01e-06,
        "meta_mean_motion_ddot": 0,
        "tle_line1": "1 57490U 23111A   25338.62810855  .00000201  00000+0  11544-3 0  9999",
        "tle_line2": "2 57490  98.7094  47.0521 0000684  88.8318 271.2937 14.19890337121254"
      },
      "geometry": {
        "type": "Point",
        "coordinates": [
          57.56430254518855,
          -49.24225172234551
        ]
      }
    },
    {
      "type": "Feature",
      "properties": {
        "norad_id": 58584,
        "name": "ARKTIKA-M 2",
        "group": "weather",
        "lat": 37.66246490203285,
        "lon": -161.30868487625972,
        "alt_km": 20958.615149663194,
        "timestamp": "2025-12-04T21:36:15.516969+00:00",
        "meta_object_name": "ARKTIKA-M 2",
        "meta_object_id": "2023-198A",
        "meta_epoch": "2025-12-03T08:34:19.284960",
        "meta_mean_motion": 2.00605176,
        "meta_eccentricity": 0.68642509,
        "meta_inclination": 63.2223,
        "meta_ra_of_asc_node": 175.9121,
        "meta_arg_of_pericenter": 268.1397,
        "meta_mean_anomaly": 18.842,
        "meta_ephemeris_type": 0,
        "meta_classification_type": "U",
        "meta_norad_cat_id": 58584,
        "meta_element_set_no": 999,
        "meta_rev_at_epoch": 1439,
        "meta_bstar": 0,
        "meta_mean_motion_dot": 2.24e-06,
        "meta_mean_motion_ddot": 0,
        "tle_line1": "1 58584U 23198A   25337.35716765  .00000224  00000+0  00000+0 0  9999",
        "tle_line2": "2 58584  63.2223 175.9121 6864250 268.1397  18.8420  2.00605176 14390"
      },
      "geometry": {
        "type": "Point",
        "coordinates": [
          -161.30868487625972,
          37.66246490203285
        ]
      }
    },
    {
      "type": "Feature",
      "properties": {
        "norad_id": 58645,
        "name": "TIANMU-1 11",
        "group": "weather",
        "lat": 18.207135180662934,
        "lon": -178.9006346080225,
        "alt_km": 498.83914264654686,
        "timestamp": "2025-12-04T21:36:15.516989+00:00",
        "meta_object_name": "TIANMU-1 11",
        "meta_object_id": "2023-205A",
        "meta_epoch": "2025-12-04T14:35:47.439744",
        "meta_mean_motion": 15.24448305,
        "meta_eccentricity": 0.0008692,
        "meta_inclination": 97.3607,
        "meta_ra_of_asc_node": 358.3756,
        "meta_arg_of_pericenter": 342.3186,
        "meta_mean_anomaly": 17.7748,
        "meta_ephemeris_type": 0,
        "meta_classification_type": "U",
        "meta_norad_cat_id": 58645,
        "meta_element_set_no": 999,
        "meta_rev_at_epoch": 10785,
        "meta_bstar": 0.00058146283,
        "meta_mean_motion_dot": 0.00014231,
        "meta_mean_motion_ddot": 0,
        "tle_line1": "1 58645U 23205A   25338.60818796  .00014231  00000+0  58146-3 0  9993",
        "tle_line2": "2 58645  97.3607 358.3756 0008692 342.3186  17.7748 15.24448305107852"
      },
      "geometry": {
        "type": "Point",
        "coordinates": [
          -178.9006346080225,
          18.207135180662934
        ]
      }
    },
    {
      "type": "Feature",
      "properties": {
        "norad_id": 58646,
        "name": "TIANMU-1 12",
        "group": "weather",
        "lat": 16.513727792304984,
        "lon": -3.7254970727442225,
        "alt_km": 490.5008627939924,
        "timestamp": "2025-12-04T21:36:15.517007+00:00",
        "meta_object_name": "TIANMU-1 12",
        "meta_object_id": "2023-205B",
        "meta_epoch": "2025-12-04T15:13:47.237664",
        "meta_mean_motion": 15.24361607,
        "meta_eccentricity": 0.00065196,
        "meta_inclination": 97.3594,
        "meta_ra_of_asc_node": 358.2097,
        "meta_arg_of_pericenter": 327.9175,
        "meta_mean_anomaly": 32.1665,
        "meta_ephemeris_type": 0,
        "meta_classification_type": "U",
        "meta_norad_cat_id": 58646,
        "meta_element_set_no": 999,
        "meta_rev_at_epoch": 10784,
        "meta_bstar": 0.0005391095,
        "meta_mean_motion_dot": 0.00013147,
        "meta_mean_motion_ddot": 0,
        "tle_line1": "1 58646U 23205B   25338.63457451  .00013147  00000+0  53911-3 0  9994",
        "tle_line2": "2 58646  97.3594 358.2097 0006519 327.9175  32.1665 15.24361607107845"
      },
      "geometry": {
        "type": "Point",
        "coordinates": [
          -3.7254970727442225,
          16.513727792304984
        ]
      }
    }
  ]
}